0 OKEAN 4
1 23317U 94066A   13282.82733796  .00000725  00000-0  82626-4 0  3459
2 23317 082.5368 302.4833 0020840 202.9138 132.2815 14.84662868 25947
0 OKEAN 4
1 23317U 94066A   13283.83920139  .00000795  00000-0  90790-4 0  3469
2 23317 082.5366 301.5357 0020921 199.5884 140.4511 14.84665461 26098
0 OKEAN 4
1 23317U 94066A   13286.14706331  .00000858  00000-0  98307-4 0  3486
2 23317 082.5363 299.3743 0021146 191.9658 235.4987 14.84668358 26442
0 OKEAN 4
1 23317U 94066A   13287.15789172  .00000994  00000-0  11430-3 0  3495
2 23317 082.5362 298.4275 0021236 188.6262 238.1789 14.84669780 26591
0 OKEAN 4
1 23317U 94066A   13288.51475703  .00001416  00000-0  16396-3 0  3506
2 23317 082.5363 297.1566 0021344 184.2032 290.3098 14.84674876 26795
0 OKEAN 4
1 23317U 94066A   13289.84019676  .00001209  00000-0  13952-3 0  3512
2 23317 082.5364 295.9150 0021470 179.8803 174.5038 14.84678570 26980
0 OKEAN 4
1 23317U 94066A   13291.13552632  .00001160  00000-0  13371-3 0  3523
2 23317 082.5365 294.7017 0021610 175.6950 257.7413 14.84681012 27182
0 OKEAN 4
1 23317U 94066A   13292.14653758  .00001277  00000-0  14749-3 0  3536
2 23317 082.5367 293.7546 0021669 172.4143 261.3868 14.84682680 27337
0 OKEAN 4
1 23317U 94066A   13293.50202664  .00001384  00000-0  16006-3 0  3541
2 23317 082.5369 292.4850 0021808 168.1077 306.1153 14.84686105 27539
0 OKEAN 4
1 23317U 94066A   13294.78515345  .00001563  00000-0  18114-3 0  3557
2 23317 082.5368 291.2833 0021897 163.9156 324.2185 14.84689480 27721
0 OKEAN 4
1 23317U 94066A   13295.79585773  .00001575  00000-0  18250-3 0  3566
2 23317 082.5368 290.3367 0022008 160.8053 326.0839 14.84692101 27876
